IRIDIUM 159             
1 43578U 18061K   24014.61118533  .00000108  00000+0  31532-4 0  9998
2 43578  86.3940  66.3956 0002318  96.4941 263.6519 14.34217906286590
IRIDIUM 180             
1 43922U 19002A   24014.47114422  .00000526  00000+0  18090-3 0  9991
2 43922  86.3974   3.3303 0002210  91.1829 268.9620 14.34219044262180
IRIDIUM 176             
1 43923U 19002B   24014.49140436  .00001976  00000+0  30939-3 0  9994
2 43923  86.6103   3.3517 0002510  88.3034 271.8470 14.72263460269089
IRIDIUM 168             
1 43924U 19002C   24014.46480506  .00000217  00000+0  70511-4 0  9995
2 43924  86.3977   3.3851 0002218  90.1635 269.9815 14.34219273262164
IRIDIUM 173             
1 43925U 19002D   24014.52188607  .00000063  00000+0  15509-4 0  9995
2 43925  86.3974   3.2862 0002259  87.5879 272.5575 14.34218890262154
IRIDIUM 169             
1 43926U 19002E   24014.57237030  .00000636  00000+0  20146-3 0  9994
2 43926  86.4209  34.8702 0003998  51.4596 308.6960 14.38608425263046
IRIDIUM 172             
1 43927U 19002F   24014.44577478 -.00000207  00000+0 -80919-4 0  9995
2 43927  86.3972   3.3234 0002124  93.7022 266.4416 14.34218161262155
IRIDIUM 175             
1 43928U 19002G   24014.41738775  .00002103  00000+0  32945-3 0  9992
2 43928  86.1525 345.2824 0002405  84.6217 275.5273 14.72266954269062
